[{"OBJECT_NAME":"STARLINK-4052","OBJECT_ID":"2022-083AR","EPOCH":"2026-03-09T13:27:12.156768","MEAN_MOTION":15.08839775,"ECCENTRICITY":0.0001527,"INCLINATION":53.2163,"RA_OF_ASC_NODE":134.4606,"ARG_OF_PERICENTER":98.5147,"MEAN_ANOMALY":261.6019,"EPHEMERIS_TYPE":0,"CLASSIFICATION_TYPE":"U","NORAD_CAT_ID":53171,"ELEMENT_SET_NO":999,"REV_AT_EPOCH":20175,"BSTAR":3.1477e-5,"MEAN_MOTION_DOT":2.13e-6,"MEAN_MOTION_DDOT":0},{"OBJECT_NAME":"CZ-4B DEB","OBJECT_ID":"2008-053M","EPOCH":"2026-03-05T07:18:48.921696","MEAN_MOTION":15.08195439,"ECCENTRICITY":0.0017401,"INCLINATION":97.8281,"RA_OF_ASC_NODE":90.6528,"ARG_OF_PERICENTER":258.7901,"MEAN_ANOMALY":101.1371,"EPHEMERIS_TYPE":0,"CLASSIFICATION_TYPE":"U","NORAD_CAT_ID":44593,"ELEMENT_SET_NO":999,"REV_AT_EPOCH":67199,"BSTAR":0.00019653,"MEAN_MOTION_DOT":2.982e-5,"MEAN_MOTION_DDOT":0}]
